[{"OBJECT_NAME":"YAM-7","OBJECT_ID":"2024-149AN","EPOCH":"2026-03-09T17:13:55.117920","MEAN_MOTION":15.30304554,"ECCENTRICITY":0.00019733,"INCLINATION":97.3828,"RA_OF_ASC_NODE":149.4631,"ARG_OF_PERICENTER":296.5121,"MEAN_ANOMALY":63.5918,"EPHEMERIS_TYPE":0,"CLASSIFICATION_TYPE":"U","NORAD_CAT_ID":60504,"ELEMENT_SET_NO":999,"REV_AT_EPOCH":8683,"BSTAR":0.00030984439,"MEAN_MOTION_DOT":9.009e-5,"MEAN_MOTION_DDOT":0},{"OBJECT_NAME":"STARLINK-35652","OBJECT_ID":"2025-257P","EPOCH":"2026-03-09T17:20:02.890752","MEAN_MOTION":15.30202547,"ECCENTRICITY":9.248e-5,"INCLINATION":53.1596,"RA_OF_ASC_NODE":217.2148,"ARG_OF_PERICENTER":95.0031,"MEAN_ANOMALY":265.1075,"EPHEMERIS_TYPE":0,"CLASSIFICATION_TYPE":"U","NORAD_CAT_ID":66393,"ELEMENT_SET_NO":999,"REV_AT_EPOCH":1973,"BSTAR":0.0011494986,"MEAN_MOTION_DOT":0.00033843,"MEAN_MOTION_DDOT":0}]
